OBJECT_NAME,OBJECT_ID,EPOCH,MEAN_MOTION,ECCENTRICITY,INCLINATION,RA_OF_ASC_NODE,ARG_OF_PERICENTER,MEAN_ANOMALY,EPHEMERIS_TYPE,CLASSIFICATION_TYPE,NORAD_CAT_ID,ELEMENT_SET_NO,REV_AT_EPOCH,BSTAR,MEAN_MOTION_DOT,MEAN_MOTION_DDOT
IONOSFERA-M 2,2024-199B,2026-07-15T13:39:49.090752,14.22762562,.00005109,98.7133,69.3473,125.1790,234.9436,0,U,61736,999,13486,.30018218E-4,.23E-6,0
PRSC-EO1,2025-012A,2026-07-15T14:36:24.855264,15.17624839,.00068123,97.4217,268.5112,145.3003,214.8676,0,U,62725,999,8250,.2045871E-3,.405E-4,0
BIOMASS,2025-090A,2026-07-15T12:52:24.664512,14.67532789,.00012414,98.0757,23.4381,94.3647,265.7699,0,U,63772,999,6484,.53360524E-4,.255E-5,0
GOSAT-GW (IBUKI GW),2025-141A,2026-07-15T14:55:25.083840,14.67554484,.00014426,98.0565,133.4769,85.1759,274.9611,0,U,64694,999,5601,.54962269E-4,.264E-5,0
IONOSFERA-M 3,2025-155A,2026-07-15T14:41:54.599136,14.21490795,.00023058,98.6040,157.8044,111.9008,248.2415,0,U,64876,999,5044,.13980953E-4,-.12E-6,0
IONOSFERA-M 4,2025-155B,2026-07-15T13:50:39.123744,14.21493227,.00018329,98.6039,157.6868,99.3219,260.8166,0,U,64877,999,5043,.15408931E-4,-.9E-7,0
MICROCARB,2025-156A,2026-07-15T05:03:32.344992,14.72885114,.00176275,98.0075,272.9127,170.7352,189.4185,0,U,64899,999,5209,.47642611E-4,.255E-5,0
CO3D 3,2025-156B,2026-07-15T11:47:39.817248,15.20193124,.00017638,97.4337,274.7776,94.5748,265.5689,0,U,64900,999,5383,.10916091E-3,.2296E-4,0
CO3D 4,2025-156C,2026-07-15T11:47:52.518912,15.20210220,.00016676,97.4336,274.7779,154.2910,205.8409,0,U,64901,999,5383,.33152549E-4,.65E-5,0
CO3D 2,2025-156D,2026-07-15T14:09:26.297280,15.20203692,.0001244,97.4337,274.7734,89.8407,270.2971,0,U,64902,999,5384,.10766194E-3,.2264E-4,0
CO3D 1,2025-156E,2026-07-15T14:09:39.587328,15.20203683,.00013019,97.4336,274.7735,100.9486,259.1896,0,U,64903,999,5384,.11131853E-3,.2343E-4,0
PRSC-S1,2025-164A,2026-07-15T07:20:20.846112,15.06635493,.00067147,41.1299,129.4223,198.7504,161.3064,0,U,65055,999,5267,.15869412E-3,.2217E-4,0
SENTINEL-6B,2025-264A,2026-07-15T02:45:43.930656,12.80930155,.00078452,66.0413,77.1731,268.7276,91.2840,0,U,66514,999,3074,.81913551E-4,-.42E-6,0
CAS500-3,2025-274F,2026-07-15T09:13:39.476352,14.88384047,.00062314,97.7437,123.7944,37.9476,322.2179,0,U,66655,999,3434,.67583544E-4,.572E-5,0
CSG-3,2026-001A,2026-07-13T12:40:32.844288,14.82151371,.00015181,97.8894,17.7492,93.3222,266.8165,0,U,67304,999,2836,.2348529E-4,.135E-5,0
PRSC-E03,2026-092A,2026-07-15T14:51:18.683136,15.06810220,.00049384,38.0012,282.0073,253.7837,106.2381,0,U,68835,999,1224,.85544827E-4,.1189E-4,0
CAS500-2,2026-100AK,2026-07-15T05:57:33.835392,15.20902524,.00078042,97.3868,93.5711,291.8126,68.2279,0,U,69013,999,1107,.15304424E-3,.3317E-4,0
