IONOSFERA-M 2           
1 61736U 24199B   26196.56931818  .00000023  00000+0  30018-4 0  9993
2 61736  98.7133  69.3473 0000510 125.1790 234.9436 14.22762562134869
PRSC-EO1                
1 62725U 25012A   26196.60862101  .00004050  00000+0  20459-3 0  9991
2 62725  97.4217 268.5112 0006812 145.3003 214.8676 15.17624839 82507
BIOMASS                 
1 63772U 25090A   26196.53639658  .00000255  00000+0  53361-4 0  9993
2 63772  98.0757  23.4381 0001241  94.3647 265.7699 14.67532789 64843
GOSAT-GW (IBUKI GW)     
1 64694U 25141A   26196.62181810  .00000264  00000+0  54962-4 0  9994
2 64694  98.0565 133.4769 0001442  85.1759 274.9611 14.67554484 56013
IONOSFERA-M 3           
1 64876U 25155A   26196.61243749 -.00000012  00000+0  13981-4 0  9998
2 64876  98.6040 157.8044 0002305 111.9008 248.2415 14.21490795 50440
IONOSFERA-M 4           
1 64877U 25155B   26196.57684171 -.00000009  00000+0  15409-4 0  9995
2 64877  98.6039 157.6868 0001832  99.3219 260.8166 14.21493227 50433
MICROCARB               
1 64899U 25156A   26196.21079103  .00000255  00000+0  47643-4 0  9991
2 64899  98.0075 272.9127 0017627 170.7352 189.4185 14.72885114 52098
CO3D 3                  
1 64900U 25156B   26196.49143307  .00002296  00000+0  10916-3 0  9991
2 64900  97.4337 274.7776 0001763  94.5748 265.5689 15.20193124 53836
CO3D 4                  
1 64901U 25156C   26196.49158008  .00000650  00000+0  33153-4 0  9997
2 64901  97.4336 274.7779 0001667 154.2910 205.8409 15.20210220 53831
CO3D 2                  
1 64902U 25156D   26196.58988770  .00002264  00000+0  10766-3 0  9992
2 64902  97.4337 274.7734 0001244  89.8407 270.2971 15.20203692 53845
CO3D 1                  
1 64903U 25156E   26196.59004152  .00002343  00000+0  11132-3 0  9993
2 64903  97.4336 274.7735 0001301 100.9486 259.1896 15.20203683 53844
PRSC-S1                 
1 65055U 25164A   26196.30579683  .00002217  00000+0  15869-3 0  9997
2 65055  41.1299 129.4223 0006714 198.7504 161.3064 15.06635493 52677
SENTINEL-6B             
1 66514U 25264A   26196.11509179 -.00000042  00000+0  81914-4 0  9991
2 66514  66.0413  77.1731 0007845 268.7276  91.2840 12.80930155 30744
CAS500-3                
1 66655U 25274F   26196.38448468  .00000572  00000+0  67584-4 0  9994
2 66655  97.7437 123.7944 0006231  37.9476 322.2179 14.88384047 34342
CSG-3                   
1 67304U 26001A   26194.52815792  .00000135  00000+0  23485-4 0  9994
2 67304  97.8894  17.7492 0001518  93.3222 266.8165 14.82151371 28369
PRSC-E03                
1 68835U 26092A   26196.61896624  .00001189  00000+0  85545-4 0  9994
2 68835  38.0012 282.0073 0004938 253.7837 106.2381 15.06810220 12242
CAS500-2                
1 69013U 26100AK  26196.24830828  .00003317  00000+0  15304-3 0  9996
2 69013  97.3868  93.5711 0007804 291.8126  68.2279 15.20902524 11079
